{"type": "FeatureCollection", "features": [{"type": "Feature", "properties": {"norad_id": 25590, "name": "COSMOS 2361", "group": "musson", "lat": 0.3392074148610838, "lon": 155.01627225584548, "alt_km": 976.7508750548895, "timestamp": "2025-12-24T22:42:22.300830+00:00", "meta": {"OBJECT_NAME": "COSMOS 2361", "OBJECT_ID": "1998-076A", "EPOCH": "2025-12-24T04:23:50.248608", "MEAN_MOTION": 13.73218715, "ECCENTRICITY": 0.00302887, "INCLINATION": 82.9345, "RA_OF_ASC_NODE": 335.6223, "ARG_OF_PERICENTER": 232.4795, "MEAN_ANOMALY": 138.1339, "EPHEMERIS_TYPE": 0, "CLASSIFICATION_TYPE": "U", "NORAD_CAT_ID": 25590, "ELEMENT_SET_NO": 999, "REV_AT_EPOCH": 35268, "BSTAR": 4.5147952e-05, "MEAN_MOTION_DOT": 5.7e-07, "MEAN_MOTION_DDOT": 0}, "tle": {"line1": "1 25590U 98076A   25358.18322047  .00000057  00000+0  45148-4 0  9998", "line2": "2 25590  82.9345 335.6223 0030288 232.4795 138.1339 13.73218715352681"}}, "geometry": {"type": "Point", "coordinates": [155.01627225584548, 0.3392074148610838]}}, {"type": "Feature", "properties": {"norad_id": 26818, "name": "COSMOS 2378", "group": "musson", "lat": -65.72622203551921, "lon": -25.306126001659713, "alt_km": 1005.0726555356432, "timestamp": "2025-12-24T22:42:22.300872+00:00", "meta": {"OBJECT_NAME": "COSMOS 2378", "OBJECT_ID": "2001-023A", "EPOCH": "2025-12-24T02:23:31.655616", "MEAN_MOTION": 13.74142919, "ECCENTRICITY": 0.00331114, "INCLINATION": 82.9272, "RA_OF_ASC_NODE": 351.301, "ARG_OF_PERICENTER": 173.0325, "MEAN_ANOMALY": 255.1688, "EPHEMERIS_TYPE": 0, "CLASSIFICATION_TYPE": "U", "NORAD_CAT_ID": 26818, "ELEMENT_SET_NO": 999, "REV_AT_EPOCH": 23079, "BSTAR": 3.4432096e-05, "MEAN_MOTION_DOT": 4.8e-07, "MEAN_MOTION_DDOT": 0}, "tle": {"line1": "1 26818U 01023A   25358.09967194  .00000048  00000+0  34432-4 0  9990", "line2": "2 26818  82.9272 351.3010 0033111 173.0325 255.1688 13.74142919230797"}}, "geometry": {"type": "Point", "coordinates": [-25.306126001659713, -65.72622203551921]}}, {"type": "Feature", "properties": {"norad_id": 27436, "name": "COSMOS 2389", "group": "musson", "lat": -4.645816781014366, "lon": 118.5251085794658, "alt_km": 1016.5519374993919, "timestamp": "2025-12-24T22:42:22.300887+00:00", "meta": {"OBJECT_NAME": "COSMOS 2389", "OBJECT_ID": "2002-026A", "EPOCH": "2025-12-24T06:38:10.640256", "MEAN_MOTION": 13.75155863, "ECCENTRICITY": 0.00471269, "INCLINATION": 82.9512, "RA_OF_ASC_NODE": 298.4445, "ARG_OF_PERICENTER": 29.2581, "MEAN_ANOMALY": 82.1722, "EPHEMERIS_TYPE": 0, "CLASSIFICATION_TYPE": "U", "NORAD_CAT_ID": 27436, "ELEMENT_SET_NO": 999, "REV_AT_EPOCH": 18307, "BSTAR": 6.591508e-05, "MEAN_MOTION_DOT": 7.9e-07, "MEAN_MOTION_DDOT": 0}, "tle": {"line1": "1 27436U 02026A   25358.27651204  .00000079  00000+0  65915-4 0  9997", "line2": "2 27436  82.9512 298.4445 0047126  29.2581  82.1722 13.75155863183079"}}, "geometry": {"type": "Point", "coordinates": [118.5251085794658, -4.645816781014366]}}, {"type": "Feature", "properties": {"norad_id": 27818, "name": "COSMOS 2398", "group": "musson", "lat": 14.950838926572196, "lon": -94.4021892248655, "alt_km": 981.1668442590135, "timestamp": "2025-12-24T22:42:22.300909+00:00", "meta": {"OBJECT_NAME": "COSMOS 2398", "OBJECT_ID": "2003-023A", "EPOCH": "2025-12-24T07:29:31.087104", "MEAN_MOTION": 13.72387012, "ECCENTRICITY": 0.00326932, "INCLINATION": 82.9483, "RA_OF_ASC_NODE": 264.1708, "ARG_OF_PERICENTER": 80.9703, "MEAN_ANOMALY": 44.3324, "EPHEMERIS_TYPE": 0, "CLASSIFICATION_TYPE": "U", "NORAD_CAT_ID": 27818, "ELEMENT_SET_NO": 999, "REV_AT_EPOCH": 12975, "BSTAR": 7.7536663e-05, "MEAN_MOTION_DOT": 8.6e-07, "MEAN_MOTION_DDOT": 0}, "tle": {"line1": "1 27818U 03023A   25358.31216536  .00000086  00000+0  77537-4 0  9990", "line2": "2 27818  82.9483 264.1708 0032693  80.9703  44.3324 13.72387012129758"}}, "geometry": {"type": "Point", "coordinates": [-94.4021892248655, 14.950838926572196]}}, {"type": "Feature", "properties": {"norad_id": 28380, "name": "COSMOS 2407", "group": "musson", "lat": 23.340472802867705, "lon": -153.08845454650532, "alt_km": 947.210734236286, "timestamp": "2025-12-24T22:42:22.300933+00:00", "meta": {"OBJECT_NAME": "COSMOS 2407", "OBJECT_ID": "2004-028A", "EPOCH": "2025-12-24T07:43:36.136992", "MEAN_MOTION": 13.76314933, "ECCENTRICITY": 0.00397816, "INCLINATION": 82.9594, "RA_OF_ASC_NODE": 204.317, "ARG_OF_PERICENTER": 23.1996, "MEAN_ANOMALY": 149.6853, "EPHEMERIS_TYPE": 0, "CLASSIFICATION_TYPE": "U", "NORAD_CAT_ID": 28380, "ELEMENT_SET_NO": 999, "REV_AT_EPOCH": 7582, "BSTAR": 3.8017304e-05, "MEAN_MOTION_DOT": 5.3e-07, "MEAN_MOTION_DDOT": 0}, "tle": {"line1": "1 28380U 04028A   25358.32194603  .00000053  00000+0  38017-4 0  9996", "line2": "2 28380  82.9594 204.3170 0039781  23.1996 149.6853 13.76314933 75823"}}, "geometry": {"type": "Point", "coordinates": [-153.08845454650532, 23.340472802867705]}}, {"type": "Feature", "properties": {"norad_id": 28521, "name": "COSMOS 2414", "group": "musson", "lat": 73.82125229290227, "lon": -159.3184542501886, "alt_km": 902.7669417006655, "timestamp": "2025-12-24T22:42:22.300951+00:00", "meta": {"OBJECT_NAME": "COSMOS 2414", "OBJECT_ID": "2005-002A", "EPOCH": "2025-12-23T11:44:27.459744", "MEAN_MOTION": 13.87904329, "ECCENTRICITY": 0.00413832, "INCLINATION": 82.9488, "RA_OF_ASC_NODE": 176.5312, "ARG_OF_PERICENTER": 109.8571, "MEAN_ANOMALY": 250.706, "EPHEMERIS_TYPE": 0, "CLASSIFICATION_TYPE": "U", "NORAD_CAT_ID": 28521, "ELEMENT_SET_NO": 999, "REV_AT_EPOCH": 5944, "BSTAR": 3.8343846e-05, "MEAN_MOTION_DOT": 6.2e-07, "MEAN_MOTION_DDOT": 0}, "tle": {"line1": "1 28521U 05002A   25357.48920671  .00000062  00000+0  38344-4 0  9997", "line2": "2 28521  82.9488 176.5312 0041383 109.8571 250.7060 13.87904329 59442"}}, "geometry": {"type": "Point", "coordinates": [-159.3184542501886, 73.82125229290227]}}, {"type": "Feature", "properties": {"norad_id": 32052, "name": "COSMOS 2429", "group": "musson", "lat": 9.811959322767413, "lon": -24.46890240112589, "alt_km": 954.44037959659, "timestamp": "2025-12-24T22:42:22.300962+00:00", "meta": {"OBJECT_NAME": "COSMOS 2429", "OBJECT_ID": "2007-038A", "EPOCH": "2025-12-24T06:56:32.826912", "MEAN_MOTION": 13.75150493, "ECCENTRICITY": 0.00385543, "INCLINATION": 82.9808, "RA_OF_ASC_NODE": 334.7942, "ARG_OF_PERICENTER": 6.0726, "MEAN_ANOMALY": 354.0889, "EPHEMERIS_TYPE": 0, "CLASSIFICATION_TYPE": "U", "NORAD_CAT_ID": 32052, "ELEMENT_SET_NO": 999, "REV_AT_EPOCH": 91761, "BSTAR": 4.5909096e-05, "MEAN_MOTION_DOT": 5.9e-07, "MEAN_MOTION_DDOT": 0}, "tle": {"line1": "1 32052U 07038A   25358.28926883  .00000059  00000+0  45909-4 0  9993", "line2": "2 32052  82.9808 334.7942 0038554   6.0726 354.0889 13.75150493917616"}}, "geometry": {"type": "Point", "coordinates": [-24.46890240112589, 9.811959322767413]}}, {"type": "Feature", "properties": {"norad_id": 35635, "name": "COSMOS 2454", "group": "musson", "lat": -34.58274768924086, "lon": -15.718341034487363, "alt_km": 949.6611361742871, "timestamp": "2025-12-24T22:42:22.300980+00:00", "meta": {"OBJECT_NAME": "COSMOS 2454", "OBJECT_ID": "2009-039A", "EPOCH": "2025-12-23T22:00:46.624320", "MEAN_MOTION": 13.89929976, "ECCENTRICITY": 0.0020065, "INCLINATION": 82.9557, "RA_OF_ASC_NODE": 160.1717, "ARG_OF_PERICENTER": 43.6325, "MEAN_ANOMALY": 65.7894, "EPHEMERIS_TYPE": 0, "CLASSIFICATION_TYPE": "U", "NORAD_CAT_ID": 35635, "ELEMENT_SET_NO": 999, "REV_AT_EPOCH": 83305, "BSTAR": 4.5962e-05, "MEAN_MOTION_DOT": 7.3e-07, "MEAN_MOTION_DDOT": 0}, "tle": {"line1": "1 35635U 09039A   25357.91720630  .00000073  00000+0  45962-4 0  9992", "line2": "2 35635  82.9557 160.1717 0020065  43.6325  65.7894 13.89929976833050"}}, "geometry": {"type": "Point", "coordinates": [-15.718341034487363, -34.58274768924086]}}, {"type": "Feature", "properties": {"norad_id": 36519, "name": "COSMOS 2463", "group": "musson", "lat": 7.430125899089315, "lon": -163.1810196875118, "alt_km": 991.2541138558281, "timestamp": "2025-12-24T22:42:22.300990+00:00", "meta": {"OBJECT_NAME": "COSMOS 2463", "OBJECT_ID": "2010-017A", "EPOCH": "2025-12-24T04:41:53.219040", "MEAN_MOTION": 13.71650092, "ECCENTRICITY": 0.00347941, "INCLINATION": 82.9603, "RA_OF_ASC_NODE": 18.2935, "ARG_OF_PERICENTER": 255.0819, "MEAN_ANOMALY": 174.6763, "EPHEMERIS_TYPE": 0, "CLASSIFICATION_TYPE": "U", "NORAD_CAT_ID": 36519, "ELEMENT_SET_NO": 999, "REV_AT_EPOCH": 78394, "BSTAR": 2.6201508e-05, "MEAN_MOTION_DOT": 3.8e-07, "MEAN_MOTION_DDOT": 0}, "tle": {"line1": "1 36519U 10017A   25358.19575485  .00000038  00000+0  26202-4 0  9996", "line2": "2 36519  82.9603  18.2935 0034794 255.0819 174.6763 13.71650092783948"}}, "geometry": {"type": "Point", "coordinates": [-163.1810196875118, 7.430125899089315]}}]}